1 29601U 06052A   19098.40307590 -.00000023  00000-0  00000-0 0  9992
2 29601  56.3447 318.0154 0074151  59.8737 300.9019  2.00564549 90723
1 29601U 06052A   19098.90165391 -.00000023  00000-0  00000+0 0  9997
2 29601  56.3443 317.9959 0074160  59.8845 300.8897  2.00564576 90789
1 29601U 06052A   19099.89881096 -.00000021  00000-0  00000+0 0  9991
2 29601  56.3437 317.9568 0074184  59.9131 300.8590  2.00564619 90804
1 29601U 06052A   19100.39738953 -.00000019  00000-0  00000+0 0  9999
2 29601  56.3434 317.9372 0074188  59.9167 300.8546  2.00564644 90817
1 29601U 06052A   19100.39738953 -.00000019  00000-0  00000-0 0  9990
2 29601  56.3434 317.9372 0074188  59.9167 300.8546  2.00564644 90761
1 29601U 06052A   19101.39454849 -.00000017  00000-0  00000-0 0  9998
2 29601  56.3426 317.8982 0074222  59.9675 300.8036  2.00564706 90786
1 29601U 06052A   19102.39170882 -.00000015  00000-0  00000+0 0  9998
2 29601  56.3421 317.8590 0074242  59.9978 300.7741  2.00564746 90858
1 29601U 06052A   19103.38886985 -.00000014  00000-0  00000+0 0  9995
2 29601  56.3415 317.8198 0074269  60.0375 300.7361  2.00564801 90870
1 29601U 06052A   19103.38886985 -.00000014  00000-0  00000-0 0  9996
2 29601  56.3415 317.8198 0074269  60.0375 300.7361  2.00564801 90870
1 29601U 06052A   19104.38603066 -.00000015  00000-0  00000+0 0  9994
2 29601  56.3409 317.7807 0074285  60.0773 300.6979  2.00564865 90895
1 29601U 06052A   19104.38603066 -.00000015  00000-0  00000-0 0  9995
2 29601  56.3409 317.7807 0074285  60.0773 300.6979  2.00564865 90840
1 29601U 06052A   19105.88176788 -.00000021  00000-0  00000+0 0  9993
2 29601  56.3400 317.7220 0074295  60.0711 300.7044  2.00564982 90926
1 29601U 06052A   19106.87892391 -.00000029  00000-0  00000-0 0  9997
2 29601  56.3393 317.6829 0074317  60.0983 300.6761  2.00565053 90898
1 29601U 06052A   19107.87607820 -.00000038  00000-0  00000-0 0  9999
2 29601  56.3387 317.6437 0074321  60.1628 300.6091  2.00565116 90962
1 29601U 06052A   19108.87322908 -.00000048  00000-0  00000+0 0  9991
2 29601  56.3381 317.6046 0074304  60.1987 300.5692  2.00565206 90989
1 29601U 06052A   19109.37180426 -.00000052  00000-0  00000-0 0  9990
2 29601  56.3379 317.5850 0074311  60.2109 300.5549  2.00565293 90946
1 29601U 06052A   19109.87037943 -.00000055  00000-0  00000+0 0  9992
2 29601  56.3376 317.5654 0074315  60.2277 300.5359  2.00565337 91001
1 29601U 06052A   19111.36610587 -.00000062  00000-0  00000+0 0  9998
2 29601  56.3366 317.5067 0074334  60.2879 300.4702  2.00565472 91031
1 29601U 06052A   19111.36610587 -.00000062  00000-0  00000-0 0  9999
2 29601  56.3366 317.5067 0074334  60.2879 300.4702  2.00565472 90984
1 29601U 06052A   19111.36610602 -.00000062  00000-0  00000+0 0  9996
2 29601  56.3366 317.5067 0074340  60.2791 300.4790  2.00565451 91035
1 29601U 06052A   19112.36325797 -.00000062  00000-0  00000+0 0  9995
2 29601  56.3360 317.4676 0074344  60.3090 300.4466  2.00565570 91055
1 29601U 06052A   19112.36325797 -.00000062  00000-0  00000-0 0  9996
2 29601  56.3360 317.4676 0074344  60.3090 300.4466  2.00565570 91000
1 29601U 06052A   19113.36041210 -.00000059  00000-0  00000-0 0  9998
2 29601  56.3354 317.4285 0074353  60.3576 300.3971  2.00565655 91024
1 29601U 06052A   19114.85614504 -.00000051  00000-0  00000+0 0  9996
2 29601  56.3345 317.3698 0074365  60.3647 300.3908  2.00565760 91109
1 29601U 06052A   19114.85614535 -.00000051  00000-0  00000+0 0  9990
2 29601  56.3346 317.3698 0074380  60.3922 300.3636  2.00565783 91106
1 29601U 06052A   19115.85330255 -.00000045  00000-0  00000+0 0  9998
2 29601  56.3340 317.3307 0074386  60.4278 300.3300  2.00565865 91129
1 29601U 06052A   19116.85045989 -.00000040  00000-0  00000+0 0  9991
2 29601  56.3333 317.2916 0074386  60.4656 300.2946  2.00565963 91142
1 29601U 06052A   19117.34903764 -.00000037  00000-0  00000-0 0  9997
2 29601  56.3331 317.2720 0074388  60.4817 300.2797  2.00566030 91100
1 29601U 06052A   19117.84761585 -.00000035  00000-0  00000+0 0  9992
2 29601  56.3328 317.2525 0074391  60.4848 300.2777  2.00566064 91168
1 29601U 06052A   19118.84477150 -.00000032  00000-0  00000-0 0  9993
2 29601  56.3322 317.2134 0074392  60.5051 300.2595  2.00566101 91133
1 29601U 06052A   19119.34334904 -.00000031  00000-0  00000+0 0  9996
2 29601  56.3319 317.1939 0074394  60.5195 300.2459  2.00566130 91199
1 29601U 06052A   19120.34050308 -.00000031  00000-0  00000-0 0  9992
2 29601  56.3313 317.1548 0074398  60.5637 300.2026  2.00566208 91167
1 29601U 06052A   19120.83907928 -.00000030  00000-0  00000+0 0  9993
2 29601  56.3309 317.1353 0074397  60.5856 300.1806  2.00566231 91226
1 29601U 06052A   19121.33765491 -.00000031  00000-0  00000-0 0  9998
2 29601  56.3306 317.1157 0074399  60.6032 300.1628  2.00566257 91189
1 29601U 06052A   19121.83623016 -.00000031  00000-0  00000+0 0  9998
2 29601  56.3303 317.0962 0074398  60.6239 300.1415  2.00566277 91240
1 29601U 06052A   19122.33480481 -.00000031  00000-0  00000-0 0  9992
2 29601  56.3300 317.0767 0074401  60.6336 300.1309  2.00566301 91209
1 29601U 06052A   19122.83337923 -.00000031  00000-0  00000+0 0  9998
2 29601  56.3298 317.0571 0074402  60.6510 300.1125  2.00566319 91264
1 29601U 06052A   19123.83052579 -.00000031  00000-0  00000-0 0  9991
2 29601  56.3291 317.0180 0074434  60.6578 300.1029  2.00566388 91238
1 29601U 06052A   19123.83052601 -.00000031  00000-0  00000+0 0  9996
2 29601  56.3291 317.0180 0074434  60.6614 300.0993  2.00566394 91280
1 29601U 06052A   19124.32909939 -.00000031  00000-0  00000-0 0  9997
2 29601  56.3288 316.9985 0074423  60.6943 300.0649  2.00566417 91240
1 29601U 06052A   19124.82767259 -.00000031  00000-0  00000+0 0  9998
2 29601  56.3286 316.9789 0074425  60.7074 300.0501  2.00566436 91303
1 29601U 06052A   19125.82481897 -.00000029  00000-0  00000+0 0  9997
2 29601  56.3280 316.9399 0074420  60.7490 300.0051  2.00566470 91321
1 29601U 06052A   19127.32053983 -.00000027  00000-0  00000-0 0  9994
2 29601  56.3271 316.8813 0074414  60.8097 299.9407  2.00566524 91307
1 29601U 06052A   19128.31768833 -.00000024  00000-0  00000+0 0  9997
2 29601  56.3264 316.8422 0074428  60.8083 299.9411  2.00566552 91378
1 29601U 06052A   19128.81626306 -.00000023  00000-0  00000+0 0  9999
2 29601  56.3261 316.8226 0074430  60.8308 299.9185  2.00566598 91389
1 29601U 06052A   19129.81341389 -.00000021  00000-0  00000+0 0  9993
2 29601  56.3255 316.7835 0074433  60.8601 299.8899  2.00566644 91402
1 29601U 06052A   19130.31198964 -.00000021  00000-0  00000+0 0  9999
2 29601  56.3252 316.7640 0074441  60.8715 299.8792  2.00566660 91419
1 29601U 06052A   19130.31198964 -.00000021  00000-0  00000-0 0  9990
2 29601  56.3252 316.7640 0074441  60.8715 299.8792  2.00566660 91363
1 29601U 06052A   19131.80771592 -.00000022  00000-0  00000+0 0  9999
2 29601  56.3243 316.7053 0074436  60.9195 299.8332  2.00566762 91440
1 29601U 06052A   19132.30629090 -.00000024  00000-0  00000-0 0  9993
2 29601  56.3240 316.6858 0074437  60.9314 299.8217  2.00566795 91407
1 29601U 06052A   19133.30343929 -.00000030  00000-0  00000+0 0  9994
2 29601  56.3234 316.6467 0074432  60.9645 299.7885  2.00566863 91471
1 29601U 06052A   19133.30343929 -.00000030  00000-0  00000-0 0  9995
2 29601  56.3234 316.6467 0074432  60.9645 299.7885  2.00566863 91426
1 29601U 06052A   19133.30343970 -.00000030  00000-0  00000+0 0  9990
2 29601  56.3234 316.6467 0074437  60.9532 299.7999  2.00566828 91478
1 29601U 06052A   19134.79915789 -.00000044  00000-0  00000+0 0  9992
2 29601  56.3224 316.5881 0074437  61.0023 299.7480  2.00566958 91506
1 29601U 06052A   19136.79344214 -.00000063  00000-0  00000+0 0  9994
2 29601  56.3211 316.5100 0074426  61.0492 299.6931  2.00567141 91543
1 29601U 06052A   19137.79058362 -.00000069  00000-0  00000+0 0  9997
2 29601  56.3205 316.4709 0074436  61.0649 299.6733  2.00567207 91560
1 29601U 06052A   19138.28915242 -.00000072  00000-0  00000-0 0  9996
2 29601  56.3201 316.4513 0074427  61.0917 299.6446  2.00567325 91525
1 29601U 06052A   19139.28629508 -.00000074  00000-0  00000+0 0  9995
2 29601  56.3194 316.4123 0074427  61.1120 299.6215  2.00567393 91596
1 29601U 06052A   19139.78486668 -.00000073  00000-0  00000+0 0  9997
2 29601  56.3190 316.3927 0074417  61.1260 299.6065  2.00567463 91600
1 29601U 06052A   19140.78201163 -.00000070  00000-0  00000+0 0  9991
2 29601  56.3184 316.3537 0074416  61.1566 299.5754  2.00567558 91629
1 29601U 06052A   19141.28058475 -.00000068  00000-0  00000+0 0  9990
2 29601  56.3181 316.3341 0074413  61.1687 299.5634  2.00567603 91639
1 29601U 06052A   19141.28058475 -.00000068  00000-0  00000-0 0  9991
2 29601  56.3181 316.3341 0074413  61.1687 299.5634  2.00567603 91583
1 29601U 06052A   19142.27773200 -.00000063  00000-0  00000+0 0  9995
2 29601  56.3174 316.2951 0074404  61.1967 299.5368  2.00567688 91657
1 29601U 06052A   19142.27773200 -.00000063  00000-0  00000-0 0  9996
2 29601  56.3174 316.2951 0074404  61.1967 299.5368  2.00567688 91602
1 29601U 06052A   19143.77345436 -.00000054  00000-0  00000+0 0  9997
2 29601  56.3163 316.2365 0074391  61.2425 299.4948  2.00567811 91683
1 29601U 06052A   19144.77060270 -.00000050  00000-0  00000+0 0  9994
2 29601  56.3158 316.1974 0074384  61.2812 299.4591  2.00567873 91709
1 29601U 06052A   19145.76774995 -.00000047  00000-0  00000-0 0  9997
2 29601  56.3153 316.1584 0074383  61.2853 299.4575  2.00567922 91678
1 29601U 06052A   19146.26632320 -.00000046  00000-0  00000+0 0  9996
2 29601  56.3149 316.1388 0074375  61.2948 299.4490  2.00567953 91738
1 29601U 06052A   19146.76489619 -.00000046  00000-0  00000-0 0  9993
2 29601  56.3147 316.1193 0074377  61.2989 299.4457  2.00567986 91691
1 29601U 06052A   19147.26346867 -.00000045  00000-0  00000-0 0  9995
2 29601  56.3144 316.0999 0074352  61.3241 299.4210  2.00568041 91708
